QIANFAN-81              
1 63167U 25046J   25340.93428158  .00000191  00000+0  27648-3 0  9994
2 63167  88.9757 320.4730 0015926 132.1114 228.1394 13.51000429 46705
QIANFAN-82              
1 63168U 25046K   25340.89415305  .00000167  00000+0  23969-3 0  9995
2 63168  88.9756 320.5211 0013861 138.6812 221.5390 13.50973957 46686
QIANFAN-83              
1 63169U 25046L   25340.89499495  .00000182  00000+0  21965-3 0  9999
2 63169  88.9757 320.3088 0015534 125.9810 234.2791 13.61972218 46805
QIANFAN-84              
1 63170U 25046M   25340.92200431  .00000117  00000+0  16223-3 0  9994
2 63170  88.9756 320.6510 0016901 136.5349 223.7138 13.50985460 46611
QIANFAN-85              
1 63171U 25046N   25340.99278321  .00000190  00000+0  27539-3 0  9998
2 63171  88.9756 320.5152 0014257 137.4912 222.7346 13.50974474 46692
QIANFAN-86              
1 63172U 25046P   25340.92704596  .00000172  00000+0  24736-3 0  9996
2 63172  88.9758 320.3841 0012021 140.4849 219.7181 13.50974309 46766
QIANFAN-87              
1 63173U 25046Q   25340.89836736  .00000154  00000+0  21947-3 0  9996
2 63173  88.9754 320.4990 0012799 136.6535 223.5625 13.50972515 46695
QIANFAN-88              
1 63174U 25046R   25340.98878764  .00000182  00000+0  26306-3 0  9999
2 63174  88.9757 320.4440 0012981 143.9678 216.2350 13.50978921 46737
